{
"type": "FeatureCollection",
"name": "meqfdz",
"crs": { "type": "name", "properties": { "name": "urn:ogc:def:crs:OGC:1.3:CRS84" } },
"features": [
{ "type": "Feature", "properties": { "id": "ECB", "name": "Bolivar", "source": "https://simplemaps.com" }, "geometry": { "type": "Polygon", "coordinates": [ [ [ -79.130074022018519, -2.20368947718186 ], [ -79.127283495164463, -2.162761752759669 ], [ -79.131805183964715, -2.154338540364863 ], [ -79.13994421908582, -2.146535258382277 ], [ -79.149220139706031, -2.145760157608147 ], [ -79.158702767610478, -2.151961414442712 ], [ -79.165058966903374, -2.158007500912351 ], [ -79.171647713658558, -2.161986651984419 ], [ -79.183171556349507, -2.162606732604619 ], [ -79.195005460648588, -2.162038325369444 ], [ -79.235493945593632, -2.154338540364863 ], [ -79.219861821726894, -2.123539250185262 ], [ -79.212420416650346, -2.08958788362158 ], [ -79.205289070165506, -2.073258192791147 ], [ -79.205521611816224, -2.065041523786501 ], [ -79.21192949065275, -2.051037285506515 ], [ -79.24647518563232, -1.995485092581888 ], [ -79.278204515675995, -1.953937288275007 ], [ -79.279496424686172, -1.944893845205744 ], [ -79.275103928853952, -1.936573979732853 ], [ -79.263037482560762, -1.92856415456949 ], [ -79.258515796040314, -1.923086475439425 ], [ -79.241591764025614, -1.856682271645815 ], [ -79.232083298849787, -1.836890163990003 ], [ -79.229447800001552, -1.822937449134331 ], [ -79.234072841942535, -1.811517030513194 ], [ -79.24107499951667, -1.801181752955231 ], [ -79.248542243784826, -1.787849268951237 ], [ -79.252133755850295, -1.774878498644048 ], [ -79.25347734065339, -1.76438805075037 ], [ -79.249033170189392, -1.744544420059136 ], [ -79.250376755456017, -1.736172731115132 ], [ -79.280659145562851, -1.692041108252686 ], [ -79.291562872493543, -1.669820201616505 ], [ -79.299262660169106, -1.6595882709285 ], [ -79.306032273834631, -1.65679775803421 ], [ -79.31275020911454, -1.657211145098012 ], [ -79.317556118814707, -1.655247556544993 ], [ -79.321586879199955, -1.649563033779362 ], [ -79.327012905627157, -1.646875867652858 ], [ -79.334299283629235, -1.645325666164697 ], [ -79.3401645585258, -1.64284519357066 ], [ -79.34385942346232, -1.638349308830026 ], [ -79.340758836047783, -1.631838011944602 ], [ -79.335823737319316, -1.628117378163725 ], [ -79.327633023202324, -1.623104759598895 ], [ -79.320139939067161, -1.616696809485748 ], [ -79.292415533759623, -1.585277590193273 ], [ -79.286446907341826, -1.583882408859615 ], [ -79.281356777055777, -1.585639303872406 ], [ -79.275336473769613, -1.589360087856212 ], [ -79.270943978122887, -1.589308414473464 ], [ -79.266422287881895, -1.585794324020599 ], [ -79.261073778456947, -1.57742278538022 ], [ -79.256474575274368, -1.568275995790899 ], [ -79.251616991089563, -1.554168411260565 ], [ -79.250092537303601, -1.540887600864247 ], [ -79.255286018482835, -1.528381891217151 ], [ -79.264406907173196, -1.519648488716363 ], [ -79.295981207726825, -1.499132954164113 ], [ -79.309752977799661, -1.485283736606753 ], [ -79.318512132106903, -1.468023775398766 ], [ -79.322310351189827, -1.446784813558743 ], [ -79.320863408930407, -1.369580123982013 ], [ -79.318951381139527, -1.359244846720237 ], [ -79.314145474473534, -1.352837046923297 ], [ -79.310063035249058, -1.351441715395794 ], [ -79.304817879338614, -1.352268639721213 ], [ -79.299546880826298, -1.349426303284374 ], [ -79.294275886669794, -1.344930568837659 ], [ -79.290942756539351, -1.339607910067178 ], [ -79.292182990957997, -1.334440271444114 ], [ -79.320863408846137, -1.31371789337113 ], [ -79.330035976879643, -1.295579484840151 ], [ -79.337348191260432, -1.291135273575022 ], [ -79.343161792237154, -1.291187097170177 ], [ -79.349750536541265, -1.296509755926765 ], [ -79.362437099864451, -1.315578285332907 ], [ -79.369697639720826, -1.322089582093932 ], [ -79.377836676771807, -1.3259135625699 ], [ -79.385329758215079, -1.324104843989014 ], [ -79.3883786684775, -1.318058757877798 ], [ -79.385975714772144, -1.305656395156675 ], [ -79.370421108587649, -1.288396434124559 ], [ -79.346675788092426, -1.250104280134112 ], [ -79.327839727549716, -1.225196208024458 ], [ -79.280710822039183, -1.202613588331171 ], [ -79.234537929748512, -1.199564708603482 ], [ -79.161209072467827, -1.162874429610034 ], [ -79.137773811258469, -1.156208187863747 ], [ -79.109455125975387, -1.152280785551054 ], [ -79.09552832703271, -1.152642499221409 ], [ -79.082066617434279, -1.154916278219953 ], [ -79.075632900634261, -1.160238936940168 ], [ -79.070646124479339, -1.167060198832281 ], [ -79.064160733035635, -1.174346596267059 ], [ -79.03408504913719, -1.193828662820534 ], [ -79.014783901917113, -1.202665261712787 ], [ -78.990909389879533, -1.209279905199106 ], [ -78.96848181741413, -1.208659749512994 ], [ -78.951221890298029, -1.203440437543529 ], [ -78.923755866032849, -1.180031043769698 ], [ -78.906935187188424, -1.171556083451163 ], [ -78.89502377031836, -1.170005806898782 ], [ -78.866239996473809, -1.178325671965426 ], [ -78.887711555650796, -1.218064905823123 ], [ -78.890192023335388, -1.230932328922987 ], [ -78.89205237528212, -1.269172884600491 ], [ -78.896186489451466, -1.285605921292659 ], [ -78.910139126958015, -1.314493144312961 ], [ -78.916314459903717, -1.332786573008227 ], [ -78.927554084768246, -1.383171124748222 ], [ -78.923807542259823, -1.397123688986513 ], [ -78.899984706584277, -1.432418712009079 ], [ -78.888770922044145, -1.445544502170591 ], [ -78.88073523724114, -1.459238849761173 ], [ -78.881122810321386, -1.480219444705052 ], [ -78.879262456997338, -1.48936608403067 ], [ -78.87368140175127, -1.502336854089662 ], [ -78.857739223419756, -1.527606640265701 ], [ -78.852649095737704, -1.540887600864247 ], [ -78.852855801567827, -1.556855577370759 ], [ -78.85688656212163, -1.58067835870428 ], [ -78.857945929024766, -1.603881059480932 ], [ -78.856137256068862, -1.637264167788924 ], [ -78.859754605154578, -1.663929135526565 ], [ -78.870141567305183, -1.690025696098583 ], [ -78.890708787214976, -1.720669814865546 ], [ -78.925667894702315, -1.752089184661665 ], [ -78.939698045797044, -1.755861491857808 ], [ -78.975199755289182, -1.760512396785221 ], [ -78.987550420998346, -1.766506809681826 ], [ -78.996878017695508, -1.773948227529482 ], [ -79.001709763616518, -1.781854705832022 ], [ -79.005042893620882, -1.791466556006744 ], [ -79.004836187934032, -1.809398271574754 ], [ -79.008763597948246, -1.853943432095712 ], [ -79.005973069323545, -1.885931059209462 ], [ -78.99964270800767, -1.907376865438231 ], [ -78.999591031274861, -1.918280550303236 ], [ -79.025584275167205, -2.046903114318924 ], [ -79.024499069613498, -2.05956384459547 ], [ -79.021450161496389, -2.068607287749819 ], [ -79.016282519704305, -2.07780575106502 ], [ -79.014628873022602, -2.088244375619742 ], [ -79.016360033378533, -2.098786346953217 ], [ -79.021140101420713, -2.110775173070081 ], [ -79.040622119385091, -2.139145663910992 ], [ -79.076330533578897, -2.175164116237497 ], [ -79.130074022018519, -2.20368947718186 ] ] ] } }
]
}
